[
  {
    "OBJECT_NAME": "STARLINK-35459",
    "OBJECT_ID": "25223C",
    "EPOCH": "2025-11-11T05:05:42.675936",
    "MEAN_MOTION": 15.39635625,
    "ECCENTRICITY": 0.0002422,
    "INCLINATION": 53.1623,
    "RA_OF_ASC_NODE": 126.0919,
    "ARG_OF_PERICENTER": 82.0438,
    "MEAN_ANOMALY": 278.0842,
    "EPHEMERIS_TYPE": 0,
    "CLASSIFICATION_TYPE": "U",
    "NORAD_CAT_ID": 65856,
    "ELEMENT_SET_NO": 999,
    "REV_AT_EPOCH": 604,
    "BSTAR": 0.0015157999999999999,
    "MEAN_MOTION_DOT": 0.0006075,
    "MEAN_MOTION_DDOT": 0.0,
    "TLE_LINE1": "1 65856U 25223C   25315.21229949  .00060750  00000+0  15158-2 0  9997",
    "TLE_LINE2": "2 65856  53.1623 126.0919 0002422  82.0438 278.0842 15.39635625  6041",
    "COMMENT": "Grouped by shell and plane from TLE"
  },
  {
    "OBJECT_NAME": "STARLINK-35489",
    "OBJECT_ID": "25223D",
    "EPOCH": "2025-11-11T04:18:53.618400",
    "MEAN_MOTION": 15.39642422,
    "ECCENTRICITY": 4.35e-05,
    "INCLINATION": 53.1617,
    "RA_OF_ASC_NODE": 125.8868,
    "ARG_OF_PERICENTER": 83.4106,
    "MEAN_ANOMALY": 276.6948,
    "EPHEMERIS_TYPE": 0,
    "CLASSIFICATION_TYPE": "U",
    "NORAD_CAT_ID": 65857,
    "ELEMENT_SET_NO": 999,
    "REV_AT_EPOCH": 604,
    "BSTAR": 0.0021335,
    "MEAN_MOTION_DOT": 0.00085969,
    "MEAN_MOTION_DDOT": 0.0,
    "TLE_LINE1": "1 65857U 25223D   25315.17978725  .00085969  00000+0  21335-2 0  9999",
    "TLE_LINE2": "2 65857  53.1617 125.8868 0000435  83.4106 276.6948 15.39642422  6048",
    "COMMENT": "Grouped by shell and plane from TLE"
  },
  {
    "OBJECT_NAME": "STARLINK-35199",
    "OBJECT_ID": "25223E",
    "EPOCH": "2025-11-11T04:52:19.820352",
    "MEAN_MOTION": 15.39666452,
    "ECCENTRICITY": 8.31e-05,
    "INCLINATION": 53.1606,
    "RA_OF_ASC_NODE": 126.033,
    "ARG_OF_PERICENTER": 59.899,
    "MEAN_ANOMALY": 300.2097,
    "EPHEMERIS_TYPE": 0,
    "CLASSIFICATION_TYPE": "U",
    "NORAD_CAT_ID": 65858,
    "ELEMENT_SET_NO": 999,
    "REV_AT_EPOCH": 604,
    "BSTAR": 0.0024598000000000003,
    "MEAN_MOTION_DOT": 0.00099434,
    "MEAN_MOTION_DDOT": 0.0,
    "TLE_LINE1": "1 65858U 25223E   25315.20300718  .00099434  00000+0  24598-2 0  9991",
    "TLE_LINE2": "2 65858  53.1606 126.0330 0000831  59.8990 300.2097 15.39666452  6040",
    "COMMENT": "Grouped by shell and plane from TLE"
  },
  {
    "OBJECT_NAME": "STARLINK-35408",
    "OBJECT_ID": "25223F",
    "EPOCH": "2025-11-10T21:31:41.054016",
    "MEAN_MOTION": 15.39668152,
    "ECCENTRICITY": 0.000124,
    "INCLINATION": 53.1666,
    "RA_OF_ASC_NODE": 127.6797,
    "ARG_OF_PERICENTER": 311.7838,
    "MEAN_ANOMALY": 48.3061,
    "EPHEMERIS_TYPE": 0,
    "CLASSIFICATION_TYPE": "U",
    "NORAD_CAT_ID": 65859,
    "ELEMENT_SET_NO": 999,
    "REV_AT_EPOCH": 599,
    "BSTAR": 0.0013735,
    "MEAN_MOTION_DOT": 0.00055025,
    "MEAN_MOTION_DDOT": 0.0,
    "TLE_LINE1": "1 65859U 25223F   25314.89700294  .00055025  00000+0  13735-2 0  9998",
    "TLE_LINE2": "2 65859  53.1666 127.6797 0001240 311.7838  48.3061 15.39668152  5990",
    "COMMENT": "Grouped by shell and plane from TLE"
  },
  {
    "OBJECT_NAME": "STARLINK-35303",
    "OBJECT_ID": "25223G",
    "EPOCH": "2025-11-11T04:59:01.484448",
    "MEAN_MOTION": 15.39655694,
    "ECCENTRICITY": 0.0002057,
    "INCLINATION": 53.1604,
    "RA_OF_ASC_NODE": 126.063,
    "ARG_OF_PERICENTER": 71.6521,
    "MEAN_ANOMALY": 288.4708,
    "EPHEMERIS_TYPE": 0,
    "CLASSIFICATION_TYPE": "U",
    "NORAD_CAT_ID": 65860,
    "ELEMENT_SET_NO": 999,
    "REV_AT_EPOCH": 604,
    "BSTAR": 0.0025904,
    "MEAN_MOTION_DOT": 0.00104774,
    "MEAN_MOTION_DDOT": 0.0,
    "TLE_LINE1": "1 65860U 25223G   25315.20765607  .00104774  00000+0  25904-2 0  9992",
    "TLE_LINE2": "2 65860  53.1604 126.0630 0002057  71.6521 288.4708 15.39655694  6040",
    "COMMENT": "Grouped by shell and plane from TLE"
  },
  {
    "OBJECT_NAME": "STARLINK-35258",
    "OBJECT_ID": "25223H",
    "EPOCH": "2025-11-10T20:18:08.559360",
    "MEAN_MOTION": 15.3966788,
    "ECCENTRICITY": 9.06e-05,
    "INCLINATION": 53.1596,
    "RA_OF_ASC_NODE": 127.3562,
    "ARG_OF_PERICENTER": 84.1376,
    "MEAN_ANOMALY": 275.9732,
    "EPHEMERIS_TYPE": 0,
    "CLASSIFICATION_TYPE": "U",
    "NORAD_CAT_ID": 65861,
    "ELEMENT_SET_NO": 999,
    "REV_AT_EPOCH": 599,
    "BSTAR": 0.0015333,
    "MEAN_MOTION_DOT": 0.00061523,
    "MEAN_MOTION_DDOT": 0.0,
    "TLE_LINE1": "1 65861U 25223H   25314.84593240  .00061523  00000+0  15333-2 0  9993",
    "TLE_LINE2": "2 65861  53.1596 127.3562 0000906  84.1376 275.9732 15.39667880  5998",
    "COMMENT": "Grouped by shell and plane from TLE"
  },
  {
    "OBJECT_NAME": "STARLINK-35386",
    "OBJECT_ID": "25223J",
    "EPOCH": "2025-11-10T20:58:15.135456",
    "MEAN_MOTION": 15.39670654,
    "ECCENTRICITY": 4.09e-05,
    "INCLINATION": 53.1623,
    "RA_OF_ASC_NODE": 127.5301,
    "ARG_OF_PERICENTER": 7.5883,
    "MEAN_ANOMALY": 352.5128,
    "EPHEMERIS_TYPE": 0,
    "CLASSIFICATION_TYPE": "U",
    "NORAD_CAT_ID": 65862,
    "ELEMENT_SET_NO": 999,
    "REV_AT_EPOCH": 599,
    "BSTAR": 0.0017473,
    "MEAN_MOTION_DOT": 0.00070256,
    "MEAN_MOTION_DDOT": 0.0,
    "TLE_LINE1": "1 65862U 25223J   25314.87378629  .00070256  00000+0  17473-2 0  9999",
    "TLE_LINE2": "2 65862  53.1623 127.5301 0000409   7.5883 352.5128 15.39670654  5997",
    "COMMENT": "Grouped by shell and plane from TLE"
  },
  {
    "OBJECT_NAME": "STARLINK-35469",
    "OBJECT_ID": "25223K",
    "EPOCH": "2025-11-11T05:12:23.258304",
    "MEAN_MOTION": 15.3966657,
    "ECCENTRICITY": 7.54e-05,
    "INCLINATION": 53.1633,
    "RA_OF_ASC_NODE": 126.1211,
    "ARG_OF_PERICENTER": 53.0332,
    "MEAN_ANOMALY": 307.0742,
    "EPHEMERIS_TYPE": 0,
    "CLASSIFICATION_TYPE": "U",
    "NORAD_CAT_ID": 65863,
    "ELEMENT_SET_NO": 999,
    "REV_AT_EPOCH": 604,
    "BSTAR": 0.0018231,
    "MEAN_MOTION_DOT": 0.0007334,
    "MEAN_MOTION_DDOT": 0.0,
    "TLE_LINE1": "1 65863U 25223K   25315.21693586  .00073340  00000+0  18231-2 0  9991",
    "TLE_LINE2": "2 65863  53.1633 126.1211 0000754  53.0332 307.0742 15.39666570  6048",
    "COMMENT": "Grouped by shell and plane from TLE"
  },
  {
    "OBJECT_NAME": "STARLINK-35471",
    "OBJECT_ID": "25223L",
    "EPOCH": "2025-11-11T04:32:16.750464",
    "MEAN_MOTION": 15.39634954,
    "ECCENTRICITY": 0.0002652,
    "INCLINATION": 53.1568,
    "RA_OF_ASC_NODE": 125.9436,
    "ARG_OF_PERICENTER": 79.7666,
    "MEAN_ANOMALY": 280.3638,
    "EPHEMERIS_TYPE": 0,
    "CLASSIFICATION_TYPE": "U",
    "NORAD_CAT_ID": 65864,
    "ELEMENT_SET_NO": 999,
    "REV_AT_EPOCH": 604,
    "BSTAR": 0.0014192,
    "MEAN_MOTION_DOT": 0.00056824,
    "MEAN_MOTION_DDOT": 0.0,
    "TLE_LINE1": "1 65864U 25223L   25315.18908276  .00056824  00000+0  14192-2 0  9993",
    "TLE_LINE2": "2 65864  53.1568 125.9436 0002652  79.7666 280.3638 15.39634954  6044",
    "COMMENT": "Grouped by shell and plane from TLE"
  },
  {
    "OBJECT_NAME": "STARLINK-35475",
    "OBJECT_ID": "25223M",
    "EPOCH": "2025-11-10T20:38:12.336864",
    "MEAN_MOTION": 15.39668247,
    "ECCENTRICITY": 0.0001756,
    "INCLINATION": 53.1556,
    "RA_OF_ASC_NODE": 127.4421,
    "ARG_OF_PERICENTER": 72.567,
    "MEAN_ANOMALY": 287.5527,
    "EPHEMERIS_TYPE": 0,
    "CLASSIFICATION_TYPE": "U",
    "NORAD_CAT_ID": 65865,
    "ELEMENT_SET_NO": 999,
    "REV_AT_EPOCH": 599,
    "BSTAR": 0.0014455000000000002,
    "MEAN_MOTION_DOT": 0.00057952,
    "MEAN_MOTION_DDOT": 0.0,
    "TLE_LINE1": "1 65865U 25223M   25314.85986501  .00057952  00000+0  14455-2 0  9999",
    "TLE_LINE2": "2 65865  53.1556 127.4421 0001756  72.5670 287.5527 15.39668247  5994",
    "COMMENT": "Grouped by shell and plane from TLE"
  },
  {
    "OBJECT_NAME": "STARLINK-35312",
    "OBJECT_ID": "25223N",
    "EPOCH": "2025-11-11T04:12:12.680928",
    "MEAN_MOTION": 15.39642439,
    "ECCENTRICITY": 0.0001367,
    "INCLINATION": 53.1593,
    "RA_OF_ASC_NODE": 125.8539,
    "ARG_OF_PERICENTER": 56.2177,
    "MEAN_ANOMALY": 303.8958,
    "EPHEMERIS_TYPE": 0,
    "CLASSIFICATION_TYPE": "U",
    "NORAD_CAT_ID": 65866,
    "ELEMENT_SET_NO": 999,
    "REV_AT_EPOCH": 604,
    "BSTAR": 0.0013954,
    "MEAN_MOTION_DOT": 0.00055867,
    "MEAN_MOTION_DDOT": 0.0,
    "TLE_LINE1": "1 65866U 25223N   25315.17514677  .00055867  00000+0  13954-2 0  9993",
    "TLE_LINE2": "2 65866  53.1593 125.8539 0001367  56.2177 303.8958 15.39642439  6049",
    "COMMENT": "Grouped by shell and plane from TLE"
  },
  {
    "OBJECT_NAME": "STARLINK-35456",
    "OBJECT_ID": "25223P",
    "EPOCH": "2025-11-10T21:44:55.312800",
    "MEAN_MOTION": 15.39695809,
    "ECCENTRICITY": 8.32e-05,
    "INCLINATION": 53.1571,
    "RA_OF_ASC_NODE": 127.0191,
    "ARG_OF_PERICENTER": 298.4942,
    "MEAN_ANOMALY": 61.5978,
    "EPHEMERIS_TYPE": 0,
    "CLASSIFICATION_TYPE": "U",
    "NORAD_CAT_ID": 65867,
    "ELEMENT_SET_NO": 999,
    "REV_AT_EPOCH": 600,
    "BSTAR": 0.0017928,
    "MEAN_MOTION_DOT": 0.00072173,
    "MEAN_MOTION_DDOT": 0.0,
    "TLE_LINE1": "1 65867U 25223P   25314.90619575  .00072173  00000+0  17928-2 0  9991",
    "TLE_LINE2": "2 65867  53.1571 127.0191 0000832 298.4942  61.5978 15.39695809  6005",
    "COMMENT": "Grouped by shell and plane from TLE"
  },
  {
    "OBJECT_NAME": "STARLINK-35450",
    "OBJECT_ID": "25223Q",
    "EPOCH": "2025-11-11T05:05:13.687872",
    "MEAN_MOTION": 15.39643782,
    "ECCENTRICITY": 8.66e-05,
    "INCLINATION": 53.1595,
    "RA_OF_ASC_NODE": 126.0871,
    "ARG_OF_PERICENTER": 78.3694,
    "MEAN_ANOMALY": 281.7408,
    "EPHEMERIS_TYPE": 0,
    "CLASSIFICATION_TYPE": "U",
    "NORAD_CAT_ID": 65868,
    "ELEMENT_SET_NO": 999,
    "REV_AT_EPOCH": 604,
    "BSTAR": 0.0014015,
    "MEAN_MOTION_DOT": 0.00056116,
    "MEAN_MOTION_DDOT": 0.0,
    "TLE_LINE1": "1 65868U 25223Q   25315.21196398  .00056116  00000+0  14015-2 0  9993",
    "TLE_LINE2": "2 65868  53.1595 126.0871 0000866  78.3694 281.7408 15.39643782  6043",
    "COMMENT": "Grouped by shell and plane from TLE"
  }
]